[{"OBJECT_NAME":"ONEWEB-0279","OBJECT_ID":"2021-060AG","EPOCH":"2026-02-24T06:23:25.349568","MEAN_MOTION":13.16593572,"ECCENTRICITY":0.00014187,"INCLINATION":87.8998,"RA_OF_ASC_NODE":251.2402,"ARG_OF_PERICENTER":101.5248,"MEAN_ANOMALY":258.6042,"EPHEMERIS_TYPE":0,"CLASSIFICATION_TYPE":"U","NORAD_CAT_ID":48997,"ELEMENT_SET_NO":999,"REV_AT_EPOCH":22476,"BSTAR":-0.00069015742,"MEAN_MOTION_DOT":-2.51e-6,"MEAN_MOTION_DDOT":0},{"OBJECT_NAME":"ONEWEB-0280","OBJECT_ID":"2021-060AH","EPOCH":"2026-02-24T06:45:06.366816","MEAN_MOTION":13.16593467,"ECCENTRICITY":0.00019437,"INCLINATION":87.8996,"RA_OF_ASC_NODE":251.2422,"ARG_OF_PERICENTER":98.4438,"MEAN_ANOMALY":261.6913,"EPHEMERIS_TYPE":0,"CLASSIFICATION_TYPE":"U","NORAD_CAT_ID":48998,"ELEMENT_SET_NO":999,"REV_AT_EPOCH":22470,"BSTAR":-9.6954261e-5,"MEAN_MOTION_DOT":-2.4e-7,"MEAN_MOTION_DDOT":0},{"OBJECT_NAME":"ONEWEB-0281","OBJECT_ID":"2021-060AJ","EPOCH":"2026-02-24T01:24:45.560160","MEAN_MOTION":13.16593975,"ECCENTRICITY":0.00014902,"INCLINATION":87.8991,"RA_OF_ASC_NODE":251.2813,"ARG_OF_PERICENTER":90.6591,"MEAN_ANOMALY":269.471,"EPHEMERIS_TYPE":0,"CLASSIFICATION_TYPE":"U","NORAD_CAT_ID":48999,"ELEMENT_SET_NO":999,"REV_AT_EPOCH":22474,"BSTAR":-0.00041685793,"MEAN_MOTION_DOT":-1.46e-6,"MEAN_MOTION_DDOT":0},{"OBJECT_NAME":"ONEWEB-0282","OBJECT_ID":"2021-060AK","EPOCH":"2026-02-24T02:08:04.487712","MEAN_MOTION":13.16596391,"ECCENTRICITY":0.00016225,"INCLINATION":87.8996,"RA_OF_ASC_NODE":251.2858,"ARG_OF_PERICENTER":98.3549,"MEAN_ANOMALY":261.7766,"EPHEMERIS_TYPE":0,"CLASSIFICATION_TYPE":"U","NORAD_CAT_ID":49000,"ELEMENT_SET_NO":999,"REV_AT_EPOCH":22472,"BSTAR":0.00018625923,"MEAN_MOTION_DOT":8.4e-7,"MEAN_MOTION_DDOT":0},{"OBJECT_NAME":"ONEWEB-0283","OBJECT_ID":"2021-060AL","EPOCH":"2026-02-24T01:52:06.808512","MEAN_MOTION":13.1659411,"ECCENTRICITY":0.00014847,"INCLINATION":87.8996,"RA_OF_ASC_NODE":251.2879,"ARG_OF_PERICENTER":98.5639,"MEAN_ANOMALY":261.566,"EPHEMERIS_TYPE":0,"CLASSIFICATION_TYPE":"U","NORAD_CAT_ID":49001,"ELEMENT_SET_NO":999,"REV_AT_EPOCH":22473,"BSTAR":-0.00041947041,"MEAN_MOTION_DOT":-1.47e-6,"MEAN_MOTION_DDOT":0},{"OBJECT_NAME":"ONEWEB-0284","OBJECT_ID":"2021-060AM","EPOCH":"2026-02-24T01:43:00.514272","MEAN_MOTION":13.16594193,"ECCENTRICITY":0.00019682,"INCLINATION":87.8995,"RA_OF_ASC_NODE":251.2802,"ARG_OF_PERICENTER":94.636,"MEAN_ANOMALY":265.4995,"EPHEMERIS_TYPE":0,"CLASSIFICATION_TYPE":"U","NORAD_CAT_ID":49002,"ELEMENT_SET_NO":999,"REV_AT_EPOCH":22471,"BSTAR":-0.00040022519,"MEAN_MOTION_DOT":-1.4e-6,"MEAN_MOTION_DDOT":0},{"OBJECT_NAME":"ONEWEB-0285","OBJECT_ID":"2021-075A","EPOCH":"2026-02-23T20:21:12.606048","MEAN_MOTION":13.12445302,"ECCENTRICITY":0.00018422,"INCLINATION":87.8986,"RA_OF_ASC_NODE":13.1536,"ARG_OF_PERICENTER":83.0009,"MEAN_ANOMALY":277.1329,"EPHEMERIS_TYPE":0,"CLASSIFICATION_TYPE":"U","NORAD_CAT_ID":49075,"ELEMENT_SET_NO":999,"REV_AT_EPOCH":22034,"BSTAR":-8.182396e-6,"MEAN_MOTION_DOT":1.0e-7,"MEAN_MOTION_DDOT":0},{"OBJECT_NAME":"ONEWEB-0286","OBJECT_ID":"2021-075B","EPOCH":"2026-02-24T06:54:06.830784","MEAN_MOTION":13.12441777,"ECCENTRICITY":0.00018224,"INCLINATION":87.8971,"RA_OF_ASC_NODE":13.0947,"ARG_OF_PERICENTER":74.4874,"MEAN_ANOMALY":285.6455,"EPHEMERIS_TYPE":0,"CLASSIFICATION_TYPE":"U","NORAD_CAT_ID":49076,"ELEMENT_SET_NO":999,"REV_AT_EPOCH":21975,"BSTAR":-0.0018462051,"MEAN_MOTION_DOT":-6.51e-6,"MEAN_MOTION_DDOT":0},{"OBJECT_NAME":"ONEWEB-0287","OBJECT_ID":"2021-075C","EPOCH":"2026-02-23T20:52:39.068832","MEAN_MOTION":13.17649699,"ECCENTRICITY":0.00020901,"INCLINATION":87.912,"RA_OF_ASC_NODE":28.3717,"ARG_OF_PERICENTER":71.6038,"MEAN_ANOMALY":288.5321,"EPHEMERIS_TYPE":0,"CLASSIFICATION_TYPE":"U","NORAD_CAT_ID":49077,"ELEMENT_SET_NO":999,"REV_AT_EPOCH":21870,"BSTAR":5.1120741e-5,"MEAN_MOTION_DOT":3.3e-7,"MEAN_MOTION_DDOT":0},{"OBJECT_NAME":"ONEWEB-0288","OBJECT_ID":"2021-075D","EPOCH":"2026-02-24T06:20:09.167136","MEAN_MOTION":13.12442734,"ECCENTRICITY":0.00019259,"INCLINATION":87.8984,"RA_OF_ASC_NODE":13.0657,"ARG_OF_PERICENTER":80.5981,"MEAN_ANOMALY":279.5366,"EPHEMERIS_TYPE":0,"CLASSIFICATION_TYPE":"U","NORAD_CAT_ID":49078,"ELEMENT_SET_NO":999,"REV_AT_EPOCH":22037,"BSTAR":0.00090683748,"MEAN_MOTION_DOT":3.39e-6,"MEAN_MOTION_DDOT":0},{"OBJECT_NAME":"ONEWEB-0289","OBJECT_ID":"2021-075E","EPOCH":"2026-02-24T06:55:04.162368","MEAN_MOTION":13.17650002,"ECCENTRICITY":0.00022211,"INCLINATION":87.9126,"RA_OF_ASC_NODE":28.2999,"ARG_OF_PERICENTER":91.3563,"MEAN_ANOMALY":268.7823,"EPHEMERIS_TYPE":0,"CLASSIFICATION_TYPE":"U","NORAD_CAT_ID":49079,"ELEMENT_SET_NO":999,"REV_AT_EPOCH":21933,"BSTAR":0.00031574108,"MEAN_MOTION_DOT":1.35e-6,"MEAN_MOTION_DDOT":0},{"OBJECT_NAME":"ONEWEB-0290","OBJECT_ID":"2021-075F","EPOCH":"2026-02-24T04:27:02.657088","MEAN_MOTION":13.17646468,"ECCENTRICITY":0.00022476,"INCLINATION":87.9128,"RA_OF_ASC_NODE":28.288,"ARG_OF_PERICENTER":97.8747,"MEAN_ANOMALY":262.264,"EPHEMERIS_TYPE":0,"CLASSIFICATION_TYPE":"U","NORAD_CAT_ID":49080,"ELEMENT_SET_NO":999,"REV_AT_EPOCH":21873,"BSTAR":6.6163104e-5,"MEAN_MOTION_DOT":3.9e-7,"MEAN_MOTION_DDOT":0},{"OBJECT_NAME":"ONEWEB-0291","OBJECT_ID":"2021-075G","EPOCH":"2026-02-24T04:05:11.070528","MEAN_MOTION":13.1764821,"ECCENTRICITY":0.00022413,"INCLINATION":87.9132,"RA_OF_ASC_NODE":28.2996,"ARG_OF_PERICENTER":79.4103,"MEAN_ANOMALY":280.7281,"EPHEMERIS_TYPE":0,"CLASSIFICATION_TYPE":"U","NORAD_CAT_ID":49081,"ELEMENT_SET_NO":999,"REV_AT_EPOCH":21872,"BSTAR":-0.00025300456,"MEAN_MOTION_DOT":-8.5e-7,"MEAN_MOTION_DDOT":0},{"OBJECT_NAME":"ONEWEB-0293","OBJECT_ID":"2021-075H","EPOCH":"2026-02-24T04:41:38.250240","MEAN_MOTION":13.17648116,"ECCENTRICITY":0.00020378,"INCLINATION":87.9122,"RA_OF_ASC_NODE":28.3068,"ARG_OF_PERICENTER":85.5304,"MEAN_ANOMALY":274.606,"EPHEMERIS_TYPE":0,"CLASSIFICATION_TYPE":"U","NORAD_CAT_ID":49082,"ELEMENT_SET_NO":999,"REV_AT_EPOCH":21875,"BSTAR":0.00025465821,"MEAN_MOTION_DOT":1.12e-6,"MEAN_MOTION_DDOT":0},{"OBJECT_NAME":"ONEWEB-0294","OBJECT_ID":"2021-075J","EPOCH":"2026-02-24T06:29:53.978496","MEAN_MOTION":13.12441015,"ECCENTRICITY":0.00020781,"INCLINATION":87.8981,"RA_OF_ASC_NODE":13.0668,"ARG_OF_PERICENTER":87.2919,"MEAN_ANOMALY":272.8447,"EPHEMERIS_TYPE":0,"CLASSIFICATION_TYPE":"U","NORAD_CAT_ID":49083,"ELEMENT_SET_NO":999,"REV_AT_EPOCH":21976,"BSTAR":-0.00028218788,"MEAN_MOTION_DOT":-8.9e-7,"MEAN_MOTION_DDOT":0},{"OBJECT_NAME":"ONEWEB-0295","OBJECT_ID":"2021-075K","EPOCH":"2026-02-24T04:40:26.004288","MEAN_MOTION":13.17648415,"ECCENTRICITY":0.00021695,"INCLINATION":87.9121,"RA_OF_ASC_NODE":28.3115,"ARG_OF_PERICENTER":77.3622,"MEAN_ANOMALY":282.7752,"EPHEMERIS_TYPE":0,"CLASSIFICATION_TYPE":"U","NORAD_CAT_ID":49084,"ELEMENT_SET_NO":999,"REV_AT_EPOCH":21871,"BSTAR":0.00016910799,"MEAN_MOTION_DOT":7.9e-7,"MEAN_MOTION_DDOT":0}]
