ONEWEB-0279             
1 48997U 21060AG  26055.26626562 -.00000251  00000+0 -69016-3 0  9993
2 48997  87.8998 251.2402 0001418 101.5248 258.6042 13.16593572224769
ONEWEB-0280             
1 48998U 21060AH  26055.28132369 -.00000024  00000+0 -96954-4 0  9993
2 48998  87.8996 251.2422 0001943  98.4438 261.6913 13.16593467224706
ONEWEB-0281             
1 48999U 21060AJ  26055.05886065 -.00000146  00000+0 -41686-3 0  9994
2 48999  87.8991 251.2813 0001490  90.6591 269.4710 13.16593975224746
ONEWEB-0282             
1 49000U 21060AK  26055.08894083  .00000084  00000+0  18626-3 0  9997
2 49000  87.8996 251.2858 0001622  98.3549 261.7766 13.16596391224728
ONEWEB-0283             
1 49001U 21060AL  26055.07785658 -.00000147  00000+0 -41947-3 0  9998
2 49001  87.8996 251.2879 0001484  98.5639 261.5660 13.16594110224739
ONEWEB-0284             
1 49002U 21060AM  26055.07153373 -.00000140  00000+0 -40023-3 0  9999
2 49002  87.8995 251.2802 0001968  94.6360 265.4995 13.16594193224713
ONEWEB-0285             
1 49075U 21075A   26054.84806257  .00000010  00000+0 -81824-5 0  9996
2 49075  87.8986  13.1536 0001842  83.0009 277.1329 13.12445302220344
ONEWEB-0286             
1 49076U 21075B   26055.28757906 -.00000651  00000+0 -18462-2 0  9999
2 49076  87.8971  13.0947 0001822  74.4874 285.6455 13.12441777219755
ONEWEB-0287             
1 49077U 21075C   26054.86989663  .00000033  00000+0  51121-4 0  9993
2 49077  87.9120  28.3717 0002090  71.6038 288.5321 13.17649699218702
ONEWEB-0288             
1 49078U 21075D   26055.26399499  .00000339  00000+0  90684-3 0  9996
2 49078  87.8984  13.0657 0001925  80.5981 279.5366 13.12442734220377
ONEWEB-0289             
1 49079U 21075E   26055.28824262  .00000135  00000+0  31574-3 0  9997
2 49079  87.9126  28.2999 0002221  91.3563 268.7823 13.17650002219336
ONEWEB-0290             
1 49080U 21075F   26055.18544742  .00000039  00000+0  66163-4 0  9996
2 49080  87.9128  28.2880 0002247  97.8747 262.2640 13.17646468218732
ONEWEB-0291             
1 49081U 21075G   26055.17026702 -.00000085  00000+0 -25300-3 0  9997
2 49081  87.9132  28.2996 0002241  79.4103 280.7281 13.17648210218724
ONEWEB-0293             
1 49082U 21075H   26055.19558160  .00000112  00000+0  25466-3 0  9990
2 49082  87.9122  28.3068 0002037  85.5304 274.6060 13.17648116218754
ONEWEB-0294             
1 49083U 21075J   26055.27076364 -.00000089  00000+0 -28219-3 0  9995
2 49083  87.8981  13.0668 0002078  87.2919 272.8447 13.12441015219765
ONEWEB-0295             
1 49084U 21075K   26055.19474542  .00000079  00000+0  16911-3 0  9990
2 49084  87.9121  28.3115 0002169  77.3622 282.7752 13.17648415218712
